STARLINK-31237          
1 58855U 24019C   26068.54522095 -.00002568  00000+0 -83906-4 0  9993
2 58855  43.0013 249.4691 0001376 282.9915  77.0783 15.27552372119060
GESAT GEN1              
1 62612U 25009D   26068.72662138  .00010041  00000+0  38326-3 0  9990
2 62612  97.4058 151.4598 0000888  98.3547 261.7793 15.26847505 63732
